{
  "type": "FeatureCollection",
  "metadata": {
    "schema": "counting-edges/v1",
    "dataset": "loerrach-sample",
    "region": "Lörrach",
    "generated_at": "2026-09-08T12:00:00.000Z",
    "source": "hand-drawn test fixture (not TILDA parkings_edges)"
  },
  "features": [
    {
      "type": "Feature",
      "id": "ce-basler-nord",
      "geometry": {
        "type": "LineString",
        "coordinates": [
          [7.6598, 47.6164],
          [7.6609, 47.6152],
          [7.6618, 47.6141]
        ]
      },
      "properties": {
        "id": "ce-basler-nord",
        "name": "Basler Straße",
        "highway": "tertiary",
        "road": "tertiary",
        "way_ids": [401001, 401002],
        "way_reversed": [false, false],
        "start_node": 501001,
        "end_node": 501002,
        "length": 186.4,
        "azimuth": 152.1,
        "capacity_left": 18,
        "capacity_right": 14,
        "parking_left": "lane",
        "parking_right": "lane"
      }
    },
    {
      "type": "Feature",
      "id": "ce-tumringer",
      "geometry": {
        "type": "LineString",
        "coordinates": [
          [7.6618, 47.6141],
          [7.6634, 47.6146],
          [7.6651, 47.615]
        ]
      },
      "properties": {
        "id": "ce-tumringer",
        "name": "Tumringer Straße",
        "highway": "residential",
        "road": "residential",
        "way_ids": [401010],
        "way_reversed": [false],
        "start_node": 501002,
        "end_node": 501010,
        "length": 142.2,
        "azimuth": 72.4,
        "capacity_left": 12,
        "capacity_right": 9,
        "parking_left": "lane",
        "parking_right": "street_side"
      }
    },
    {
      "type": "Feature",
      "id": "ce-wallbrunn",
      "geometry": {
        "type": "LineString",
        "coordinates": [
          [7.6618, 47.6141],
          [7.6604, 47.6132],
          [7.6591, 47.6124]
        ]
      },
      "properties": {
        "id": "ce-wallbrunn",
        "name": "Wallbrunnstraße",
        "highway": "residential",
        "road": "residential",
        "way_ids": [401020, 401021],
        "way_reversed": [false, true],
        "start_node": 501002,
        "end_node": 501020,
        "length": 168.7,
        "azimuth": 214.8,
        "capacity_left": 16,
        "capacity_right": 0,
        "parking_left": "lane",
        "parking_right": "no"
      }
    },
    {
      "type": "Feature",
      "id": "ce-teich",
      "geometry": {
        "type": "LineString",
        "coordinates": [
          [7.6591, 47.6124],
          [7.6576, 47.6128],
          [7.6562, 47.6133]
        ]
      },
      "properties": {
        "id": "ce-teich",
        "name": "Teichstraße",
        "highway": "residential",
        "road": "residential",
        "way_ids": [401030],
        "way_reversed": [false],
        "start_node": 501020,
        "end_node": 501030,
        "length": 121.5,
        "azimuth": 298.2,
        "capacity_left": 8,
        "capacity_right": 7,
        "parking_left": "lane",
        "parking_right": "lane"
      }
    },
    {
      "type": "Feature",
      "id": "ce-marktplatz",
      "geometry": {
        "type": "LineString",
        "coordinates": [
          [7.6618, 47.6141],
          [7.6622, 47.6134],
          [7.6627, 47.6128]
        ]
      },
      "properties": {
        "id": "ce-marktplatz",
        "name": "Marktplatz",
        "highway": "pedestrian",
        "road": "pedestrian",
        "way_ids": [401040],
        "way_reversed": [false],
        "start_node": 501002,
        "end_node": 501040,
        "length": 96.3,
        "azimuth": 164.5,
        "capacity_left": 4,
        "capacity_right": 0,
        "parking_left": "street_side",
        "parking_right": "no"
      }
    },
    {
      "type": "Feature",
      "id": "ce-wiesental",
      "geometry": {
        "type": "LineString",
        "coordinates": [
          [7.6651, 47.615],
          [7.6668, 47.6161],
          [7.6682, 47.617]
        ]
      },
      "properties": {
        "id": "ce-wiesental",
        "name": "Wiesentalstraße",
        "highway": "secondary",
        "road": "secondary",
        "way_ids": [401050, 401051],
        "way_reversed": [false, false],
        "start_node": 501010,
        "end_node": 501050,
        "length": 214.9,
        "azimuth": 48.6,
        "capacity_left": 22,
        "capacity_right": 19,
        "parking_left": "lane",
        "parking_right": "lane"
      }
    }
  ]
}
